{"fetched_at":"2026-07-16T06:42:31.905Z","source":"https://celestrak.org/NORAD/elements/gp.php?GROUP=kuiper&FORMAT=JSON","constellation":"kuiper","records":[{"OBJECT_NAME":"KUIPER-00265","OBJECT_ID":"2025-301AC","EPOCH":"2026-07-15T08:53:00.697344","CLASSIFICATION_TYPE":"U","MEAN_MOTION":14.79930495,"ECCENTRICITY":0.0000359,"INCLINATION":51.9024,"RA_OF_ASC_NODE":241.042,"ARG_OF_PERICENTER":88.3905,"MEAN_ANOMALY":271.7099,"EPHEMERIS_TYPE":0,"NORAD_CAT_ID":67159,"ELEMENT_SET_NO":999,"REV_AT_EPOCH":3239,"BSTAR":0.00016914049,"MEAN_MOTION_DOT":0.00001069,"MEAN_MOTION_DDOT":0},{"OBJECT_NAME":"KUIPER-00159","OBJECT_ID":"2026-030A","EPOCH":"2026-07-15T22:00:01.999584","CLASSIFICATION_TYPE":"U","MEAN_MOTION":15.23947162,"ECCENTRICITY":0.0006041,"INCLINATION":51.8901,"RA_OF_ASC_NODE":319.7012,"ARG_OF_PERICENTER":132.3051,"MEAN_ANOMALY":171.085,"EPHEMERIS_TYPE":0,"NORAD_CAT_ID":67764,"ELEMENT_SET_NO":999,"REV_AT_EPOCH":555,"BSTAR":-0.090874059,"MEAN_MOTION_DOT":-0.02013883,"MEAN_MOTION_DDOT":0},{"OBJECT_NAME":"KUIPER-00160","OBJECT_ID":"2026-030B","EPOCH":"2026-07-15T12:03:54.226944","CLASSIFICATION_TYPE":"U","MEAN_MOTION":15.37298183,"ECCENTRICITY":0.00059335,"INCLINATION":51.8822,"RA_OF_ASC_NODE":321.3051,"ARG_OF_PERICENTER":144.2394,"MEAN_ANOMALY":215.8991,"EPHEMERIS_TYPE":0,"NORAD_CAT_ID":67765,"ELEMENT_SET_NO":999,"REV_AT_EPOCH":2475,"BSTAR":0.00048087465,"MEAN_MOTION_DOT":0.00017505,"MEAN_MOTION_DDOT":0},{"OBJECT_NAME":"KUIPER-00177","OBJECT_ID":"2026-030C","EPOCH":"2026-07-15T22:11:42.834048","CLASSIFICATION_TYPE":"U","MEAN_MOTION":14.79934178,"ECCENTRICITY":0.00007768,"INCLINATION":51.9007,"RA_OF_ASC_NODE":6.0677,"ARG_OF_PERICENTER":131.1689,"MEAN_ANOMALY":228.934,"EPHEMERIS_TYPE":0,"NORAD_CAT_ID":67766,"ELEMENT_SET_NO":999,"REV_AT_EPOCH":2416,"BSTAR":0.00007512743,"MEAN_MOTION_DOT":0.00000352,"MEAN_MOTION_DDOT":0},{"OBJECT_NAME":"KUIPER-00178","OBJECT_ID":"2026-030D","EPOCH":"2026-07-14T17:49:57.420480","CLASSIFICATION_TYPE":"U","MEAN_MOTION":14.79933315,"ECCENTRICITY":0.0000817,"INCLINATION":51.9013,"RA_OF_ASC_NODE":11.2755,"ARG_OF_PERICENTER":130.1839,"MEAN_ANOMALY":229.9196,"EPHEMERIS_TYPE":0,"NORAD_CAT_ID":67767,"ELEMENT_SET_NO":999,"REV_AT_EPOCH":2399,"BSTAR":0.00001613607,"MEAN_MOTION_DOT":-9.8e-7,"MEAN_MOTION_DDOT":0},{"OBJECT_NAME":"KUIPER-00180","OBJECT_ID":"2026-030E","EPOCH":"2026-07-15T21:30:51.263424","CLASSIFICATION_TYPE":"U","MEAN_MOTION":14.79932731,"ECCENTRICITY":0.00005663,"INCLINATION":51.9008,"RA_OF_ASC_NODE":1.1792,"ARG_OF_PERICENTER":117.0524,"MEAN_ANOMALY":243.0497,"EPHEMERIS_TYPE":0,"NORAD_CAT_ID":67768,"ELEMENT_SET_NO":999,"REV_AT_EPOCH":2423,"BSTAR":0.00024540043,"MEAN_MOTION_DOT":0.0000165,"MEAN_MOTION_DDOT":0},{"OBJECT_NAME":"KUIPER-00197","OBJECT_ID":"2026-030F","EPOCH":"2026-07-15T18:47:25.937376","CLASSIFICATION_TYPE":"U","MEAN_MOTION":14.79933087,"ECCENTRICITY":0.00005181,"INCLINATION":51.9012,"RA_OF_ASC_NODE":341.6954,"ARG_OF_PERICENTER":173.7284,"MEAN_ANOMALY":186.3685,"EPHEMERIS_TYPE":0,"NORAD_CAT_ID":67769,"ELEMENT_SET_NO":999,"REV_AT_EPOCH":2449,"BSTAR":0.00026503968,"MEAN_MOTION_DOT":0.000018,"MEAN_MOTION_DDOT":0},{"OBJECT_NAME":"KUIPER-00198","OBJECT_ID":"2026-030G","EPOCH":"2026-07-15T17:39:23.040576","CLASSIFICATION_TYPE":"U","MEAN_MOTION":14.79934925,"ECCENTRICITY":0.00005474,"INCLINATION":51.9001,"RA_OF_ASC_NODE":354.3862,"ARG_OF_PERICENTER":113.7199,"MEAN_ANOMALY":246.3821,"EPHEMERIS_TYPE":0,"NORAD_CAT_ID":67770,"ELEMENT_SET_NO":999,"REV_AT_EPOCH":2431,"BSTAR":0.00025997052,"MEAN_MOTION_DOT":0.00001761,"MEAN_MOTION_DDOT":0},{"OBJECT_NAME":"KUIPER-00199","OBJECT_ID":"2026-030H","EPOCH":"2026-07-15T12:38:40.584768","CLASSIFICATION_TYPE":"U","MEAN_MOTION":15.37021544,"ECCENTRICITY":0.00101645,"INCLINATION":51.8802,"RA_OF_ASC_NODE":322.9255,"ARG_OF_PERICENTER":153.2739,"MEAN_ANOMALY":206.8773,"EPHEMERIS_TYPE":0,"NORAD_CAT_ID":67771,"ELEMENT_SET_NO":999,"REV_AT_EPOCH":2473,"BSTAR":0.00050039305,"MEAN_MOTION_DOT":0.00018086,"MEAN_MOTION_DDOT":0},{"OBJECT_NAME":"KUIPER-00200","OBJECT_ID":"2026-030J","EPOCH":"2026-07-15T18:02:50.026560","CLASSIFICATION_TYPE":"U","MEAN_MOTION":14.7988031,"ECCENTRICITY":0.00013474,"INCLINATION":51.8997,"RA_OF_ASC_NODE":339.3587,"ARG_OF_PERICENTER":82.3511,"MEAN_ANOMALY":277.7604,"EPHEMERIS_TYPE":0,"NORAD_CAT_ID":67772,"ELEMENT_SET_NO":999,"REV_AT_EPOCH":2452,"BSTAR":0.00025191811,"MEAN_MOTION_DOT":0.00001697,"MEAN_MOTION_DDOT":0},{"OBJECT_NAME":"KUIPER-00203","OBJECT_ID":"2026-030K","EPOCH":"2026-07-15T20:26:42.120960","CLASSIFICATION_TYPE":"U","MEAN_MOTION":14.79939028,"ECCENTRICITY":0.00006655,"INCLINATION":51.9078,"RA_OF_ASC_NODE":11.4364,"ARG_OF_PERICENTER":126.4376,"MEAN_ANOMALY":233.6648,"EPHEMERIS_TYPE":0,"NORAD_CAT_ID":67773,"ELEMENT_SET_NO":999,"REV_AT_EPOCH":2408,"BSTAR":0.00026192276,"MEAN_MOTION_DOT":0.00001776,"MEAN_MOTION_DDOT":0},{"OBJECT_NAME":"KUIPER-00205","OBJECT_ID":"2026-030L","EPOCH":"2026-07-15T18:06:25.377696","CLASSIFICATION_TYPE":"U","MEAN_MOTION":14.79930097,"ECCENTRICITY":0.00010376,"INCLINATION":51.9016,"RA_OF_ASC_NODE":336.7971,"ARG_OF_PERICENTER":116.6826,"MEAN_ANOMALY":243.4243,"EPHEMERIS_TYPE":0,"NORAD_CAT_ID":67774,"ELEMENT_SET_NO":999,"REV_AT_EPOCH":2456,"BSTAR":0.00019045633,"MEAN_MOTION_DOT":0.00001231,"MEAN_MOTION_DDOT":0},{"OBJECT_NAME":"KUIPER-00208","OBJECT_ID":"2026-030M","EPOCH":"2026-07-14T16:10:23.576736","CLASSIFICATION_TYPE":"U","MEAN_MOTION":14.76516945,"ECCENTRICITY":0.00081715,"INCLINATION":51.8987,"RA_OF_ASC_NODE":9.0425,"ARG_OF_PERICENTER":120.803,"MEAN_ANOMALY":239.3736,"EPHEMERIS_TYPE":0,"NORAD_CAT_ID":67775,"ELEMENT_SET_NO":999,"REV_AT_EPOCH":2401,"BSTAR":0.0001956094,"MEAN_MOTION_DOT":0.0000116,"MEAN_MOTION_DDOT":0},{"OBJECT_NAME":"KUIPER-00209","OBJECT_ID":"2026-030N","EPOCH":"2026-07-15T10:58:47.324352","CLASSIFICATION_TYPE":"U","MEAN_MOTION":14.79933411,"ECCENTRICITY":0.0000628,"INCLINATION":51.9018,"RA_OF_ASC_NODE":3.2114,"ARG_OF_PERICENTER":132.5576,"MEAN_ANOMALY":227.5439,"EPHEMERIS_TYPE":0,"NORAD_CAT_ID":67776,"ELEMENT_SET_NO":999,"REV_AT_EPOCH":2416,"BSTAR":0.00021351832,"MEAN_MOTION_DOT":0.00001407,"MEAN_MOTION_DDOT":0},{"OBJECT_NAME":"KUIPER-00213","OBJECT_ID":"2026-030P","EPOCH":"2026-07-15T23:11:58.709472","CLASSIFICATION_TYPE":"U","MEAN_MOTION":14.79938818,"ECCENTRICITY":0.0000631,"INCLINATION":51.8979,"RA_OF_ASC_NODE":358.4408,"ARG_OF_PERICENTER":120.2952,"MEAN_ANOMALY":239.8073,"EPHEMERIS_TYPE":0,"NORAD_CAT_ID":67777,"ELEMENT_SET_NO":999,"REV_AT_EPOCH":2427,"BSTAR":0.00026717035,"MEAN_MOTION_DOT":0.00001816,"MEAN_MOTION_DDOT":0},{"OBJECT_NAME":"KUIPER-00214","OBJECT_ID":"2026-030Q","EPOCH":"2026-07-15T20:50:01.098528","CLASSIFICATION_TYPE":"U","MEAN_MOTION":14.79935642,"ECCENTRICITY":0.00005085,"INCLINATION":51.9026,"RA_OF_ASC_NODE":356.3877,"ARG_OF_PERICENTER":113.8432,"MEAN_ANOMALY":246.2584,"EPHEMERIS_TYPE":0,"NORAD_CAT_ID":67778,"ELEMENT_SET_NO":999,"REV_AT_EPOCH":2429,"BSTAR":0.000053539599,"MEAN_MOTION_DOT":0.00000187,"MEAN_MOTION_DDOT":0}]}
