KUIPER-00265            
1 67159U 25301AC  26196.37014696  .00001069  00000+0  16914-3 0  9998
2 67159  51.9024 241.0420 0000359  88.3905 271.7099 14.79930495 32397
KUIPER-00159            
1 67764U 26030A   26196.91668981 -.02013883  00000+0 -90874-1 0  9998
2 67764  51.8901 319.7012 0006041 132.3051 171.0850 15.23947162  5552
KUIPER-00160            
1 67765U 26030B   26196.50271096  .00017505  00000+0  48087-3 0  9993
2 67765  51.8822 321.3051 0005933 144.2394 215.8991 15.37298183 24751
KUIPER-00177            
1 67766U 26030C   26196.92480132  .00000352  00000+0  75127-4 0  9991
2 67766  51.9007   6.0677 0000776 131.1689 228.9340 14.79934178 24165
KUIPER-00178            
1 67767U 26030D   26195.74302570 -.00000098  00000+0  16136-4 0  9993
2 67767  51.9013  11.2755 0000817 130.1839 229.9196 14.79933315 23992
KUIPER-00180            
1 67768U 26030E   26196.89642666  .00001650  00000+0  24540-3 0  9995
2 67768  51.9008   1.1792 0000566 117.0524 243.0497 14.79932731 24232
KUIPER-00197            
1 67769U 26030F   26196.78293909  .00001800  00000+0  26504-3 0  9995
2 67769  51.9012 341.6954 0000518 173.7284 186.3685 14.79933087 24490
KUIPER-00198            
1 67770U 26030G   26196.73568334  .00001761  00000+0  25997-3 0  9990
2 67770  51.9001 354.3862 0000547 113.7199 246.3821 14.79934925 24312
KUIPER-00199            
1 67771U 26030H   26196.52685862  .00018086  00000+0  50039-3 0  9997
2 67771  51.8802 322.9255 0010164 153.2739 206.8773 15.37021544 24735
KUIPER-00200            
1 67772U 26030J   26196.75196790  .00001697  00000+0  25192-3 0  9992
2 67772  51.8997 339.3587 0001347  82.3511 277.7604 14.79880310 24520
KUIPER-00203            
1 67773U 26030K   26196.85187640  .00001776  00000+0  26192-3 0  9997
2 67773  51.9078  11.4364 0000665 126.4376 233.6648 14.79939028 24085
KUIPER-00205            
1 67774U 26030L   26196.75446039  .00001231  00000+0  19046-3 0  9993
2 67774  51.9016 336.7971 0001037 116.6826 243.4243 14.79930097 24560
KUIPER-00208            
1 67775U 26030M   26195.67388399  .00001160  00000+0  19561-3 0  9991
2 67775  51.8987   9.0425 0008171 120.8030 239.3736 14.76516945 24011
KUIPER-00209            
1 67776U 26030N   26196.45749218  .00001407  00000+0  21352-3 0  9995
2 67776  51.9018   3.2114 0000628 132.5576 227.5439 14.79933411 24162
KUIPER-00213            
1 67777U 26030P   26196.96665173  .00001816  00000+0  26717-3 0  9993
2 67777  51.8979 358.4408 0000631 120.2952 239.8073 14.79938818 24273
KUIPER-00214            
1 67778U 26030Q   26196.86806827  .00000187  00000+0  53540-4 0  9991
2 67778  51.9026 356.3877 0000508 113.8432 246.2584 14.79935642 24292
